TROLL                   
1 62658U 25009BB  26068.22522958  .00013174  00000+0  48220-3 0  9994
2 62658  97.3932 150.7169 0001816  59.1850 300.9568 15.28164315118170
STARLINK-34016          
1 64016U 25101Y   26068.20208596  .00031949  00000+0  11655-2 0  9995
2 64016  43.0051   0.4524 0001519 274.3402  85.7276 15.27580867 46986
